[{"OBJECT_NAME":"ARIANE 3 DEB","OBJECT_ID":"1988-081L","EPOCH":"2026-03-04T00:15:30.545280","MEAN_MOTION":2.15645188,"ECCENTRICITY":0.69569448,"INCLINATION":6.8186,"RA_OF_ASC_NODE":312.0312,"ARG_OF_PERICENTER":82.2638,"MEAN_ANOMALY":18.7485,"EPHEMERIS_TYPE":0,"CLASSIFICATION_TYPE":"U","NORAD_CAT_ID":33536,"ELEMENT_SET_NO":999,"REV_AT_EPOCH":17128,"BSTAR":0,"MEAN_MOTION_DOT":-1.89e-6,"MEAN_MOTION_DDOT":0},{"OBJECT_NAME":"ARIANE 3 DEB","OBJECT_ID":"1988-081M","EPOCH":"2026-03-04T10:59:49.997184","MEAN_MOTION":2.16847418,"ECCENTRICITY":0.6988895,"INCLINATION":6.2573,"RA_OF_ASC_NODE":133.7016,"ARG_OF_PERICENTER":61.0181,"MEAN_ANOMALY":7.0424,"EPHEMERIS_TYPE":0,"CLASSIFICATION_TYPE":"U","NORAD_CAT_ID":33537,"ELEMENT_SET_NO":999,"REV_AT_EPOCH":10234,"BSTAR":0,"MEAN_MOTION_DOT":-1.96e-6,"MEAN_MOTION_DDOT":0},{"OBJECT_NAME":"ARIANE 3 DEB","OBJECT_ID":"1988-081N","EPOCH":"2026-02-28T03:20:14.028864","MEAN_MOTION":2.24399586,"ECCENTRICITY":0.71949231,"INCLINATION":7.6472,"RA_OF_ASC_NODE":32.9056,"ARG_OF_PERICENTER":230.1607,"MEAN_ANOMALY":41.1682,"EPHEMERIS_TYPE":0,"CLASSIFICATION_TYPE":"U","NORAD_CAT_ID":33538,"ELEMENT_SET_NO":999,"REV_AT_EPOCH":16803,"BSTAR":0.00027346643,"MEAN_MOTION_DOT":6.0e-7,"MEAN_MOTION_DDOT":0},{"OBJECT_NAME":"ARIANE 44LP DEB","OBJECT_ID":"1988-109Q","EPOCH":"2026-02-26T06:32:01.800384","MEAN_MOTION":2.23927637,"ECCENTRICITY":0.7089084,"INCLINATION":7.3041,"RA_OF_ASC_NODE":320.815,"ARG_OF_PERICENTER":257.1678,"MEAN_ANOMALY":332.5946,"EPHEMERIS_TYPE":0,"CLASSIFICATION_TYPE":"U","NORAD_CAT_ID":33541,"ELEMENT_SET_NO":999,"REV_AT_EPOCH":18983,"BSTAR":-0.0011343,"MEAN_MOTION_DOT":-7.0e-7,"MEAN_MOTION_DDOT":0},{"OBJECT_NAME":"ARIANE 44LP DEB","OBJECT_ID":"1988-109R","EPOCH":"2026-03-04T03:07:27.629760","MEAN_MOTION":2.24379238,"ECCENTRICITY":0.71351414,"INCLINATION":6.7494,"RA_OF_ASC_NODE":246.9616,"ARG_OF_PERICENTER":37.7824,"MEAN_ANOMALY":63.7472,"EPHEMERIS_TYPE":0,"CLASSIFICATION_TYPE":"U","NORAD_CAT_ID":33542,"ELEMENT_SET_NO":999,"REV_AT_EPOCH":16923,"BSTAR":-0.0011722664,"MEAN_MOTION_DOT":-8.6e-7,"MEAN_MOTION_DDOT":0},{"OBJECT_NAME":"ARIANE 44LP DEB","OBJECT_ID":"1988-109V","EPOCH":"2026-03-03T20:57:19.008288","MEAN_MOTION":2.23375106,"ECCENTRICITY":0.7123579,"INCLINATION":7.1946,"RA_OF_ASC_NODE":285.2156,"ARG_OF_PERICENTER":325.7621,"MEAN_ANOMALY":311.8806,"EPHEMERIS_TYPE":0,"CLASSIFICATION_TYPE":"U","NORAD_CAT_ID":33546,"ELEMENT_SET_NO":999,"REV_AT_EPOCH":1908,"BSTAR":0.00036458,"MEAN_MOTION_DOT":-6.1e-7,"MEAN_MOTION_DDOT":0},{"OBJECT_NAME":"ARIANE 2 DEB","OBJECT_ID":"1989-006BA","EPOCH":"2026-03-03T06:48:26.333568","MEAN_MOTION":2.21805626,"ECCENTRICITY":0.69443217,"INCLINATION":10.5151,"RA_OF_ASC_NODE":9.4164,"ARG_OF_PERICENTER":197.6941,"MEAN_ANOMALY":114.1763,"EPHEMERIS_TYPE":0,"CLASSIFICATION_TYPE":"U","NORAD_CAT_ID":33558,"ELEMENT_SET_NO":999,"REV_AT_EPOCH":1890,"BSTAR":0,"MEAN_MOTION_DOT":-2.07e-6,"MEAN_MOTION_DDOT":0},{"OBJECT_NAME":"ARIANE 2 DEB","OBJECT_ID":"1989-006BC","EPOCH":"2026-03-04T04:04:11.348256","MEAN_MOTION":2.2516317,"ECCENTRICITY":0.70671369,"INCLINATION":10.8786,"RA_OF_ASC_NODE":60.6245,"ARG_OF_PERICENTER":63.4971,"MEAN_ANOMALY":1.9378,"EPHEMERIS_TYPE":0,"CLASSIFICATION_TYPE":"U","NORAD_CAT_ID":33560,"ELEMENT_SET_NO":999,"REV_AT_EPOCH":17849,"BSTAR":0.0091028313,"MEAN_MOTION_DOT":7.8e-7,"MEAN_MOTION_DDOT":0},{"OBJECT_NAME":"ARIANE 2 DEB","OBJECT_ID":"1989-006BX","EPOCH":"2026-02-18T15:25:07.019904","MEAN_MOTION":2.24810218,"ECCENTRICITY":0.70694966,"INCLINATION":10.5626,"RA_OF_ASC_NODE":129.1899,"ARG_OF_PERICENTER":280.7345,"MEAN_ANOMALY":38.6641,"EPHEMERIS_TYPE":0,"CLASSIFICATION_TYPE":"U","NORAD_CAT_ID":33579,"ELEMENT_SET_NO":999,"REV_AT_EPOCH":19244,"BSTAR":0.013912503,"MEAN_MOTION_DOT":2.86e-6,"MEAN_MOTION_DDOT":0},{"OBJECT_NAME":"EXPRESS-AM44","OBJECT_ID":"2009-007A","EPOCH":"2026-03-04T03:42:54.231840","MEAN_MOTION":1.00271886,"ECCENTRICITY":0.0004316,"INCLINATION":3.1937,"RA_OF_ASC_NODE":79.6948,"ARG_OF_PERICENTER":257.4284,"MEAN_ANOMALY":229.497,"EPHEMERIS_TYPE":0,"CLASSIFICATION_TYPE":"U","NORAD_CAT_ID":33595,"ELEMENT_SET_NO":999,"REV_AT_EPOCH":5123,"BSTAR":0,"MEAN_MOTION_DOT":-1.0e-6,"MEAN_MOTION_DDOT":0},{"OBJECT_NAME":"BREEZE-M R/B","OBJECT_ID":"2009-007D","EPOCH":"2026-03-04T01:20:52.847808","MEAN_MOTION":0.97631455,"ECCENTRICITY":0.02020342,"INCLINATION":12.2468,"RA_OF_ASC_NODE":37.2927,"ARG_OF_PERICENTER":58.5253,"MEAN_ANOMALY":299.336,"EPHEMERIS_TYPE":0,"CLASSIFICATION_TYPE":"U","NORAD_CAT_ID":33598,"ELEMENT_SET_NO":999,"REV_AT_EPOCH":6124,"BSTAR":0,"MEAN_MOTION_DOT":-1.36e-6,"MEAN_MOTION_DDOT":0},{"OBJECT_NAME":"NSS-9","OBJECT_ID":"2009-008A","EPOCH":"2026-03-04T14:49:38.633664","MEAN_MOTION":1.00273151,"ECCENTRICITY":0.000216,"INCLINATION":0.9913,"RA_OF_ASC_NODE":83.7021,"ARG_OF_PERICENTER":254.7826,"MEAN_ANOMALY":229.3478,"EPHEMERIS_TYPE":0,"CLASSIFICATION_TYPE":"U","NORAD_CAT_ID":33749,"ELEMENT_SET_NO":999,"REV_AT_EPOCH":6247,"BSTAR":0,"MEAN_MOTION_DOT":6.1e-7,"MEAN_MOTION_DDOT":0},{"OBJECT_NAME":"TELSTAR 11N","OBJECT_ID":"2009-009A","EPOCH":"2026-03-04T08:06:38.530080","MEAN_MOTION":1.00271929,"ECCENTRICITY":0.00023413,"INCLINATION":0.0202,"RA_OF_ASC_NODE":137.5392,"ARG_OF_PERICENTER":194.5952,"MEAN_ANOMALY":274.0492,"EPHEMERIS_TYPE":0,"CLASSIFICATION_TYPE":"U","NORAD_CAT_ID":34111,"ELEMENT_SET_NO":999,"REV_AT_EPOCH":4519,"BSTAR":0,"MEAN_MOTION_DOT":-2.63e-6,"MEAN_MOTION_DDOT":0},{"OBJECT_NAME":"SL-23 R/B","OBJECT_ID":"2009-009B","EPOCH":"2026-03-03T02:26:16.509408","MEAN_MOTION":2.20444673,"ECCENTRICITY":0.68848562,"INCLINATION":35.0838,"RA_OF_ASC_NODE":295.1197,"ARG_OF_PERICENTER":131.7458,"MEAN_ANOMALY":4.8752,"EPHEMERIS_TYPE":0,"CLASSIFICATION_TYPE":"U","NORAD_CAT_ID":34112,"ELEMENT_SET_NO":999,"REV_AT_EPOCH":13702,"BSTAR":0,"MEAN_MOTION_DOT":-8.4e-7,"MEAN_MOTION_DDOT":0},{"OBJECT_NAME":"RADUGA-1 8","OBJECT_ID":"2009-010A","EPOCH":"2026-03-04T14:47:48.183360","MEAN_MOTION":0.99814699,"ECCENTRICITY":0.0010345,"INCLINATION":11.9107,"RA_OF_ASC_NODE":42.6833,"ARG_OF_PERICENTER":19.2909,"MEAN_ANOMALY":38.1116,"EPHEMERIS_TYPE":0,"CLASSIFICATION_TYPE":"U","NORAD_CAT_ID":34264,"ELEMENT_SET_NO":999,"REV_AT_EPOCH":6213,"BSTAR":0,"MEAN_MOTION_DOT":-2.1e-7,"MEAN_MOTION_DDOT":0},{"OBJECT_NAME":"SL-12 R/B(2)","OBJECT_ID":"2009-010B","EPOCH":"2026-03-03T20:38:05.849952","MEAN_MOTION":1.00004915,"ECCENTRICITY":0.0003839,"INCLINATION":11.9028,"RA_OF_ASC_NODE":42.6319,"ARG_OF_PERICENTER":293.6613,"MEAN_ANOMALY":74.5645,"EPHEMERIS_TYPE":0,"CLASSIFICATION_TYPE":"U","NORAD_CAT_ID":34265,"ELEMENT_SET_NO":999,"REV_AT_EPOCH":6214,"BSTAR":0,"MEAN_MOTION_DOT":-2.89e-6,"MEAN_MOTION_DDOT":0},{"OBJECT_NAME":"WGS F2 (USA 204)","OBJECT_ID":"2009-017A","EPOCH":"2026-03-04T14:35:16.467936","MEAN_MOTION":1.00270134,"ECCENTRICITY":5.28e-5,"INCLINATION":0.025,"RA_OF_ASC_NODE":141.8078,"ARG_OF_PERICENTER":231.7537,"MEAN_ANOMALY":65.1282,"EPHEMERIS_TYPE":0,"CLASSIFICATION_TYPE":"U","NORAD_CAT_ID":34713,"ELEMENT_SET_NO":999,"REV_AT_EPOCH":4456,"BSTAR":0,"MEAN_MOTION_DOT":0,"MEAN_MOTION_DDOT":0}]
