ARIANE 3 DEB            
1 33536U 88081L   26063.01077020 -.00000189  00000+0  00000+0 0  9996
2 33536   6.8186 312.0312 6956944  82.2638  18.7485  2.15645188171287
ARIANE 3 DEB            
1 33537U 88081M   26063.45821756 -.00000196  00000+0  00000+0 0  9996
2 33537   6.2573 133.7016 6988895  61.0181   7.0424  2.16847418102345
ARIANE 3 DEB            
1 33538U 88081N   26059.13905126  .00000060  00000+0  27347-3 0  9997
2 33538   7.6472  32.9056 7194923 230.1607  41.1682  2.24399586168037
ARIANE 44LP DEB         
1 33541U 88109Q   26057.27224306 -.00000070  00000+0 -11343-2 0  9990
2 33541   7.3041 320.8150 7089084 257.1678 332.5946  2.23927637189836
ARIANE 44LP DEB         
1 33542U 88109R   26063.13018090 -.00000086  00000+0 -11723-2 0  9993
2 33542   6.7494 246.9616 7135141  37.7824  63.7472  2.24379238169236
ARIANE 44LP DEB         
1 33546U 88109V   26062.87313667 -.00000061  00000+0  36458-3 0  9990
2 33546   7.1946 285.2156 7123579 325.7621 311.8806  2.23375106 19083
ARIANE 2 DEB            
1 33558U 89006BA  26062.28363812 -.00000207  00000+0  00000+0 0  9994
2 33558  10.5151   9.4164 6944321 197.6941 114.1763  2.21805626 18902
ARIANE 2 DEB            
1 33560U 89006BC  26063.16957579  .00000078  00000+0  91028-2 0  9992
2 33560  10.8786  60.6245 7067136  63.4971   1.9378  2.25163170178496
ARIANE 2 DEB            
1 33579U 89006BX  26049.64244236  .00000286  00000+0  13913-1 0  9995
2 33579  10.5626 129.1899 7069496 280.7345  38.6641  2.24810218192444
EXPRESS-AM44            
1 33595U 09007A   26063.15479435 -.00000100  00000+0  00000+0 0  9996
2 33595   3.1937  79.6948 0004316 257.4284 229.4970  1.00271886 51236
BREEZE-M R/B            
1 33598U 09007D   26063.05616722 -.00000136  00000+0  00000+0 0  9999
2 33598  12.2468  37.2927 0202034  58.5253 299.3360  0.97631455 61247
NSS-9                   
1 33749U 09008A   26063.61780826  .00000061  00000+0  00000+0 0  9993
2 33749   0.9913  83.7021 0002160 254.7826 229.3478  1.00273151 62478
TELSTAR 11N             
1 34111U 09009A   26063.33794595 -.00000263  00000+0  00000+0 0  9990
2 34111   0.0202 137.5392 0002341 194.5952 274.0492  1.00271929 45199
SL-23 R/B               
1 34112U 09009B   26062.10157997 -.00000084  00000+0  00000+0 0  9995
2 34112  35.0838 295.1197 6884856 131.7458   4.8752  2.20444673137029
RADUGA-1 8              
1 34264U 09010A   26063.61652990 -.00000021  00000+0  00000+0 0  9996
2 34264  11.9107  42.6833 0010345  19.2909  38.1116  0.99814699 62136
SL-12 R/B(2)            
1 34265U 09010B   26062.85978993 -.00000289  00000+0  00000+0 0  9992
2 34265  11.9028  42.6319 0003839 293.6613  74.5645  1.00004915 62145
WGS F2 (USA 204)        
1 34713U 09017A   26063.60782949  .00000000  00000+0  00000+0 0  9995
2 34713   0.0250 141.8078 0000528 231.7537  65.1282  1.00270134 44560
